[{"OBJECT_NAME":"STARLINK-37094","OBJECT_ID":"2026-054K","EPOCH":"2026-03-28T04:00:01.999584","MEAN_MOTION":15.80856962,"ECCENTRICITY":7.779e-5,"INCLINATION":53.1588,"RA_OF_ASC_NODE":219.9955,"ARG_OF_PERICENTER":101.2881,"MEAN_ANOMALY":19.6334,"EPHEMERIS_TYPE":0,"CLASSIFICATION_TYPE":"U","NORAD_CAT_ID":68241,"ELEMENT_SET_NO":999,"REV_AT_EPOCH":287,"BSTAR":0.00014581199,"MEAN_MOTION_DOT":0.00028152,"MEAN_MOTION_DDOT":0},{"OBJECT_NAME":"STARLINK-36356","OBJECT_ID":"2026-054L","EPOCH":"2026-03-28T04:00:01.999584","MEAN_MOTION":15.80870061,"ECCENTRICITY":0.00010144,"INCLINATION":53.1589,"RA_OF_ASC_NODE":219.9864,"ARG_OF_PERICENTER":80.9498,"MEAN_ANOMALY":44.2346,"EPHEMERIS_TYPE":0,"CLASSIFICATION_TYPE":"U","NORAD_CAT_ID":68242,"ELEMENT_SET_NO":999,"REV_AT_EPOCH":292,"BSTAR":9.3444231e-5,"MEAN_MOTION_DOT":0.00017779,"MEAN_MOTION_DDOT":0},{"OBJECT_NAME":"STARLINK-36345","OBJECT_ID":"2026-054M","EPOCH":"2026-03-28T04:00:01.999584","MEAN_MOTION":15.790962,"ECCENTRICITY":0.00010651,"INCLINATION":53.1592,"RA_OF_ASC_NODE":219.9804,"ARG_OF_PERICENTER":80.0458,"MEAN_ANOMALY":48.0424,"EPHEMERIS_TYPE":0,"CLASSIFICATION_TYPE":"U","NORAD_CAT_ID":68243,"ELEMENT_SET_NO":999,"REV_AT_EPOCH":292,"BSTAR":-0.012039819,"MEAN_MOTION_DOT":-0.01909307,"MEAN_MOTION_DDOT":0},{"OBJECT_NAME":"STARLINK-36310","OBJECT_ID":"2026-054N","EPOCH":"2026-03-28T04:00:01.999584","MEAN_MOTION":15.80876921,"ECCENTRICITY":0.00010379,"INCLINATION":53.1591,"RA_OF_ASC_NODE":219.9601,"ARG_OF_PERICENTER":101.0122,"MEAN_ANOMALY":36.9831,"EPHEMERIS_TYPE":0,"CLASSIFICATION_TYPE":"U","NORAD_CAT_ID":68244,"ELEMENT_SET_NO":999,"REV_AT_EPOCH":292,"BSTAR":3.1359554e-5,"MEAN_MOTION_DOT":5.496e-5,"MEAN_MOTION_DDOT":0},{"OBJECT_NAME":"STARLINK-36247","OBJECT_ID":"2026-054P","EPOCH":"2026-03-28T04:00:01.999584","MEAN_MOTION":15.80886073,"ECCENTRICITY":0.00011188,"INCLINATION":53.1589,"RA_OF_ASC_NODE":219.9691,"ARG_OF_PERICENTER":115.1815,"MEAN_ANOMALY":18.543,"EPHEMERIS_TYPE":0,"CLASSIFICATION_TYPE":"U","NORAD_CAT_ID":68245,"ELEMENT_SET_NO":999,"REV_AT_EPOCH":292,"BSTAR":-0.00023000216,"MEAN_MOTION_DOT":-0.00045881,"MEAN_MOTION_DDOT":0},{"OBJECT_NAME":"STARLINK-37043","OBJECT_ID":"2026-054Q","EPOCH":"2026-03-28T04:00:01.999584","MEAN_MOTION":15.80866563,"ECCENTRICITY":9.94e-5,"INCLINATION":53.1591,"RA_OF_ASC_NODE":219.9515,"ARG_OF_PERICENTER":73.1677,"MEAN_ANOMALY":69.1034,"EPHEMERIS_TYPE":0,"CLASSIFICATION_TYPE":"U","NORAD_CAT_ID":68246,"ELEMENT_SET_NO":999,"REV_AT_EPOCH":288,"BSTAR":0.00013073943,"MEAN_MOTION_DOT":0.00025172,"MEAN_MOTION_DDOT":0},{"OBJECT_NAME":"STARLINK-37044","OBJECT_ID":"2026-054R","EPOCH":"2026-03-28T04:00:01.999584","MEAN_MOTION":15.80877408,"ECCENTRICITY":9.973e-5,"INCLINATION":53.159,"RA_OF_ASC_NODE":219.9424,"ARG_OF_PERICENTER":81.4793,"MEAN_ANOMALY":65.0597,"EPHEMERIS_TYPE":0,"CLASSIFICATION_TYPE":"U","NORAD_CAT_ID":68247,"ELEMENT_SET_NO":999,"REV_AT_EPOCH":288,"BSTAR":1.3466201e-5,"MEAN_MOTION_DOT":1.96e-5,"MEAN_MOTION_DDOT":0},{"OBJECT_NAME":"STARLINK-36997","OBJECT_ID":"2026-054S","EPOCH":"2026-03-28T04:00:01.999584","MEAN_MOTION":15.79985034,"ECCENTRICITY":0.00013095,"INCLINATION":53.1591,"RA_OF_ASC_NODE":219.9342,"ARG_OF_PERICENTER":94.6728,"MEAN_ANOMALY":55.8202,"EPHEMERIS_TYPE":0,"CLASSIFICATION_TYPE":"U","NORAD_CAT_ID":68248,"ELEMENT_SET_NO":999,"REV_AT_EPOCH":288,"BSTAR":-0.011439767,"MEAN_MOTION_DOT":-0.01892784,"MEAN_MOTION_DDOT":0},{"OBJECT_NAME":"STARLINK-37141","OBJECT_ID":"2026-054T","EPOCH":"2026-03-28T04:00:01.999584","MEAN_MOTION":15.80884191,"ECCENTRICITY":7.951e-5,"INCLINATION":53.1592,"RA_OF_ASC_NODE":219.925,"ARG_OF_PERICENTER":65.9807,"MEAN_ANOMALY":89.1044,"EPHEMERIS_TYPE":0,"CLASSIFICATION_TYPE":"U","NORAD_CAT_ID":68249,"ELEMENT_SET_NO":999,"REV_AT_EPOCH":296,"BSTAR":-0.00024512758,"MEAN_MOTION_DOT":-0.00048829,"MEAN_MOTION_DDOT":0},{"OBJECT_NAME":"STARLINK-37087","OBJECT_ID":"2026-054U","EPOCH":"2026-03-28T04:00:01.999584","MEAN_MOTION":15.8088244,"ECCENTRICITY":0.00010317,"INCLINATION":53.1589,"RA_OF_ASC_NODE":219.9161,"ARG_OF_PERICENTER":105.9411,"MEAN_ANOMALY":53.4134,"EPHEMERIS_TYPE":0,"CLASSIFICATION_TYPE":"U","NORAD_CAT_ID":68250,"ELEMENT_SET_NO":999,"REV_AT_EPOCH":288,"BSTAR":-0.00012335529,"MEAN_MOTION_DOT":-0.00024985,"MEAN_MOTION_DDOT":0},{"OBJECT_NAME":"STARLINK-36274","OBJECT_ID":"2026-054V","EPOCH":"2026-03-28T04:00:01.999584","MEAN_MOTION":15.8104739,"ECCENTRICITY":0.00010558,"INCLINATION":53.159,"RA_OF_ASC_NODE":219.9072,"ARG_OF_PERICENTER":96.916,"MEAN_ANOMALY":66.6793,"EPHEMERIS_TYPE":0,"CLASSIFICATION_TYPE":"U","NORAD_CAT_ID":68251,"ELEMENT_SET_NO":999,"REV_AT_EPOCH":292,"BSTAR":-0.0025031389,"MEAN_MOTION_DOT":-0.00472479,"MEAN_MOTION_DDOT":0},{"OBJECT_NAME":"STARLINK-37085","OBJECT_ID":"2026-054W","EPOCH":"2026-03-28T04:00:01.999584","MEAN_MOTION":15.80894769,"ECCENTRICITY":0.00013251,"INCLINATION":53.159,"RA_OF_ASC_NODE":219.8981,"ARG_OF_PERICENTER":93.6337,"MEAN_ANOMALY":74.2626,"EPHEMERIS_TYPE":0,"CLASSIFICATION_TYPE":"U","NORAD_CAT_ID":68252,"ELEMENT_SET_NO":999,"REV_AT_EPOCH":288,"BSTAR":-0.00020879214,"MEAN_MOTION_DOT":-0.00041752,"MEAN_MOTION_DDOT":0},{"OBJECT_NAME":"STARLINK-37086","OBJECT_ID":"2026-054X","EPOCH":"2026-03-28T04:00:01.999584","MEAN_MOTION":15.81042336,"ECCENTRICITY":0.00010392,"INCLINATION":53.1589,"RA_OF_ASC_NODE":219.89,"ARG_OF_PERICENTER":83.4557,"MEAN_ANOMALY":88.6966,"EPHEMERIS_TYPE":0,"CLASSIFICATION_TYPE":"U","NORAD_CAT_ID":68253,"ELEMENT_SET_NO":999,"REV_AT_EPOCH":288,"BSTAR":-0.00164085,"MEAN_MOTION_DOT":-0.00315474,"MEAN_MOTION_DDOT":0},{"OBJECT_NAME":"STARLINK-37084","OBJECT_ID":"2026-054Y","EPOCH":"2026-03-28T04:00:01.999584","MEAN_MOTION":15.80900306,"ECCENTRICITY":0.00011019,"INCLINATION":53.1589,"RA_OF_ASC_NODE":219.872,"ARG_OF_PERICENTER":87.3334,"MEAN_ANOMALY":93.3783,"EPHEMERIS_TYPE":0,"CLASSIFICATION_TYPE":"U","NORAD_CAT_ID":68254,"ELEMENT_SET_NO":999,"REV_AT_EPOCH":288,"BSTAR":-0.00027360682,"MEAN_MOTION_DOT":-0.00054429,"MEAN_MOTION_DDOT":0},{"OBJECT_NAME":"STARLINK-37075","OBJECT_ID":"2026-054Z","EPOCH":"2026-03-28T04:00:01.999584","MEAN_MOTION":15.80886487,"ECCENTRICITY":0.0001073,"INCLINATION":53.159,"RA_OF_ASC_NODE":219.8808,"ARG_OF_PERICENTER":94.6462,"MEAN_ANOMALY":81.8006,"EPHEMERIS_TYPE":0,"CLASSIFICATION_TYPE":"U","NORAD_CAT_ID":68255,"ELEMENT_SET_NO":999,"REV_AT_EPOCH":288,"BSTAR":-0.00027523393,"MEAN_MOTION_DOT":-0.00054712,"MEAN_MOTION_DDOT":0},{"OBJECT_NAME":"STARLINK-36333","OBJECT_ID":"2026-054AA","EPOCH":"2026-03-28T04:00:01.999584","MEAN_MOTION":15.8089153,"ECCENTRICITY":9.327e-5,"INCLINATION":53.159,"RA_OF_ASC_NODE":219.8635,"ARG_OF_PERICENTER":66.692,"MEAN_ANOMALY":118.2949,"EPHEMERIS_TYPE":0,"CLASSIFICATION_TYPE":"U","NORAD_CAT_ID":68256,"ELEMENT_SET_NO":999,"REV_AT_EPOCH":292,"BSTAR":-0.000297821,"MEAN_MOTION_DOT":-0.00059127,"MEAN_MOTION_DDOT":0},{"OBJECT_NAME":"STARLINK-36745","OBJECT_ID":"2026-054AB","EPOCH":"2026-03-28T04:00:01.999584","MEAN_MOTION":15.80854217,"ECCENTRICITY":6.614e-5,"INCLINATION":53.1587,"RA_OF_ASC_NODE":219.8447,"ARG_OF_PERICENTER":93.8623,"MEAN_ANOMALY":99.7425,"EPHEMERIS_TYPE":0,"CLASSIFICATION_TYPE":"U","NORAD_CAT_ID":68257,"ELEMENT_SET_NO":999,"REV_AT_EPOCH":288,"BSTAR":-0.00016845411,"MEAN_MOTION_DOT":-0.00033785,"MEAN_MOTION_DDOT":0},{"OBJECT_NAME":"STARLINK-36890","OBJECT_ID":"2026-054AC","EPOCH":"2026-03-28T04:00:01.999584","MEAN_MOTION":15.80877845,"ECCENTRICITY":9.853e-5,"INCLINATION":53.1589,"RA_OF_ASC_NODE":219.8367,"ARG_OF_PERICENTER":87.0385,"MEAN_ANOMALY":110.7679,"EPHEMERIS_TYPE":0,"CLASSIFICATION_TYPE":"U","NORAD_CAT_ID":68258,"ELEMENT_SET_NO":999,"REV_AT_EPOCH":288,"BSTAR":-0.0001208705,"MEAN_MOTION_DOT":-0.00024492,"MEAN_MOTION_DDOT":0},{"OBJECT_NAME":"STARLINK-36323","OBJECT_ID":"2026-054AD","EPOCH":"2026-03-28T04:00:01.999584","MEAN_MOTION":15.80893565,"ECCENTRICITY":0.00011694,"INCLINATION":53.1589,"RA_OF_ASC_NODE":219.8543,"ARG_OF_PERICENTER":87.44,"MEAN_ANOMALY":101.8137,"EPHEMERIS_TYPE":0,"CLASSIFICATION_TYPE":"U","NORAD_CAT_ID":68259,"ELEMENT_SET_NO":999,"REV_AT_EPOCH":292,"BSTAR":-0.00020166368,"MEAN_MOTION_DOT":-0.00040353,"MEAN_MOTION_DDOT":0},{"OBJECT_NAME":"STARLINK-37056","OBJECT_ID":"2026-054AE","EPOCH":"2026-03-28T04:00:01.999584","MEAN_MOTION":15.80890141,"ECCENTRICITY":0.00012723,"INCLINATION":53.1587,"RA_OF_ASC_NODE":219.8277,"ARG_OF_PERICENTER":73.9416,"MEAN_ANOMALY":128.128,"EPHEMERIS_TYPE":0,"CLASSIFICATION_TYPE":"U","NORAD_CAT_ID":68260,"ELEMENT_SET_NO":999,"REV_AT_EPOCH":288,"BSTAR":-0.0001835002,"MEAN_MOTION_DOT":-0.00036791,"MEAN_MOTION_DDOT":0},{"OBJECT_NAME":"TEN-KOH 2","OBJECT_ID":"2025-241B","EPOCH":"2026-03-28T03:04:54.952320","MEAN_MOTION":15.22728041,"ECCENTRICITY":0.00044415,"INCLINATION":51.6384,"RA_OF_ASC_NODE":345.1973,"ARG_OF_PERICENTER":222.8314,"MEAN_ANOMALY":137.2318,"EPHEMERIS_TYPE":0,"CLASSIFICATION_TYPE":"U","NORAD_CAT_ID":68261,"ELEMENT_SET_NO":999,"REV_AT_EPOCH":255,"BSTAR":0.00039296581,"MEAN_MOTION_DOT":8.973e-5,"MEAN_MOTION_DDOT":0},{"OBJECT_NAME":"STARLINK-37162","OBJECT_ID":"2026-055A","EPOCH":"2026-03-28T04:00:01.999584","MEAN_MOTION":15.96544834,"ECCENTRICITY":6.751e-5,"INCLINATION":53.158,"RA_OF_ASC_NODE":245.1013,"ARG_OF_PERICENTER":71.7354,"MEAN_ANOMALY":97.7681,"EPHEMERIS_TYPE":0,"CLASSIFICATION_TYPE":"U","NORAD_CAT_ID":68262,"ELEMENT_SET_NO":999,"REV_AT_EPOCH":260,"BSTAR":-0.0022471364,"MEAN_MOTION_DOT":-0.00974144,"MEAN_MOTION_DDOT":0.0003054528},{"OBJECT_NAME":"STARLINK-37156","OBJECT_ID":"2026-055B","EPOCH":"2026-03-28T04:00:01.999584","MEAN_MOTION":15.96638125,"ECCENTRICITY":7.711e-5,"INCLINATION":53.1579,"RA_OF_ASC_NODE":245.097,"ARG_OF_PERICENTER":66.7381,"MEAN_ANOMALY":105.0304,"EPHEMERIS_TYPE":0,"CLASSIFICATION_TYPE":"U","NORAD_CAT_ID":68263,"ELEMENT_SET_NO":999,"REV_AT_EPOCH":260,"BSTAR":-0.0022342844,"MEAN_MOTION_DOT":-0.00973554,"MEAN_MOTION_DDOT":0.0003054122}]
